{ "OBJECTID": "2", "Shape": [40.76611954300006, -73.98791631199992], "NAME": "404 W 54th Street", "ID": "1117", "ADDRESS": "404 W 54th Street", "CITY": "New York", "ZIP": "10019", "PHONE": "", "TYPE": "Free", "URL": "" }
{ "OBJECTID": "3", "Shape": [40.73336500100004, -73.99938299299993], "NAME": "Barnes & Noble", "ID": "1120", "ADDRESS": "396 Avenue of the Americas", "CITY": "New York", "ZIP": "10011", "PHONE": "212-674-8780", "TYPE": "Free", "URL": "http://www.barnesandnobleinc.com" }
{ "OBJECTID": "4", "Shape": [40.732595090000075, -73.99755181599994], "NAME": "Gizzi's Coffee", "ID": "1131", "ADDRESS": "16 W. 8th Street", "CITY": "New York", "ZIP": "10011", "PHONE": "212-260-9700", "TYPE": "Free", "URL": "http://www.openwifinyc.com/classic/a/Gizzis-Coffee-NY-10011" }
{ "OBJECTID": "6", "Shape": [40.77394694900005, -73.87021737599991], "NAME": "LaGuardia Airport - Continental Airlines Presidents Club", "ID": "1139", "ADDRESS": "Concourse A, third level", "CITY": "Flushing", "ZIP": "11371", "PHONE": "718-505-7435", "TYPE": "Free", "URL": "http://www.continental.com/web/en-US/" }
{ "OBJECTID": "7", "Shape": [40.76856292700006, -73.8615473289999], "NAME": "LaGuardia Airport - Northwest WorldClubs Lounge", "ID": "1141", "ADDRESS": "Behind the Northwest ticket counter", "CITY": "Flushing", "ZIP": "11371", "PHONE": "718-476-7196", "TYPE": "Free", "URL": "http://www.continental.com/web/en-US/con" }
{ "OBJECTID": "8", "Shape": [40.705118249000066, -74.0183821519999], "NAME": "Wagner Park", "ID": "1175", "ADDRESS": "Battery  Place & 1 Place", "CITY": "New York", "ZIP": "10280", "PHONE": "", "TYPE": "Free", "URL": "http://www.nycwireless.net/press/wagner-park-gets-hotter-with-wi-fi/" }
{ "OBJECTID": "9", "Shape": [40.840409771000054, -73.8768904929999], "NAME": "McDonald's", "ID": "233", "ADDRESS": "1101 E Tremont Ave", "CITY": "Bronx", "ZIP": "10460", "PHONE": "", "TYPE": "Fee-based", "URL": "http://www.mcdonalds.com/wireless.html" }
{ "OBJECTID": "10", "Shape": [40.89298107800005, -73.85725811099991], "NAME": "McDonald's", "ID": "234", "ADDRESS": "4174 White Plains Rd", "CITY": "Bronx", "ZIP": "10466", "PHONE": "", "TYPE": "Fee-based", "URL": "http://www.mcdonalds.com/wireless.html" }

